CCSDS_OMM_VERS = 2.0
CREATION_DATE  = 
ORIGINATOR     = 

OBJECT_NAME    = STARLINK-36732
OBJECT_ID      = 2026-032S
CENTER_NAME    = EARTH
REF_FRAME      = TEME
TIME_SYSTEM    = UTC
MEAN_ELEMENT_THEORY = SGP/SGP4

EPOCH          = 2026-03-04T13:52:48.820512
MEAN_MOTION    = 15.80901375
ECCENTRICITY   = .00016165
INCLINATION    = 97.2832
RA_OF_ASC_NODE = 249.8847
ARG_OF_PERICENTER = 67.2699
MEAN_ANOMALY   = 292.8740

EPHEMERIS_TYPE = 0
CLASSIFICATION_TYPE = U
NORAD_CAT_ID   = 67813
ELEMENT_SET_NO = 999
REV_AT_EPOCH   = 398
BSTAR          = .13284211E-2
MEAN_MOTION_DOT = .263164E-2
MEAN_MOTION_DDOT = 0

CCSDS_OMM_VERS = 2.0
CREATION_DATE  = 
ORIGINATOR     = 

OBJECT_NAME    = STARLINK-36767
OBJECT_ID      = 2026-032T
CENTER_NAME    = EARTH
REF_FRAME      = TEME
TIME_SYSTEM    = UTC
MEAN_ELEMENT_THEORY = SGP/SGP4

EPOCH          = 2026-03-04T12:00:00.999648
MEAN_MOTION    = 15.75154861
ECCENTRICITY   = .00013761
INCLINATION    = 97.2832
RA_OF_ASC_NODE = 249.7675
ARG_OF_PERICENTER = 66.8667
MEAN_ANOMALY   = 124.5237

EPHEMERIS_TYPE = 0
CLASSIFICATION_TYPE = U
NORAD_CAT_ID   = 67814
ELEMENT_SET_NO = 999
REV_AT_EPOCH   = 394
BSTAR          = .21265819E-3
MEAN_MOTION_DOT = .31659E-3
MEAN_MOTION_DDOT = 0

CCSDS_OMM_VERS = 2.0
CREATION_DATE  = 
ORIGINATOR     = 

OBJECT_NAME    = STARLINK-36797
OBJECT_ID      = 2026-032U
CENTER_NAME    = EARTH
REF_FRAME      = TEME
TIME_SYSTEM    = UTC
MEAN_ELEMENT_THEORY = SGP/SGP4

EPOCH          = 2026-03-04T12:00:00.999648
MEAN_MOTION    = 15.75121761
ECCENTRICITY   = .00017529
INCLINATION    = 97.2842
RA_OF_ASC_NODE = 249.7897
ARG_OF_PERICENTER = 90.0134
MEAN_ANOMALY   = 151.3770

EPHEMERIS_TYPE = 0
CLASSIFICATION_TYPE = U
NORAD_CAT_ID   = 67815
ELEMENT_SET_NO = 999
REV_AT_EPOCH   = 388
BSTAR          = .6452434E-3
MEAN_MOTION_DOT = .96927E-3
MEAN_MOTION_DDOT = 0

CCSDS_OMM_VERS = 2.0
CREATION_DATE  = 
ORIGINATOR     = 

OBJECT_NAME    = STARLINK-36343
OBJECT_ID      = 2026-032V
CENTER_NAME    = EARTH
REF_FRAME      = TEME
TIME_SYSTEM    = UTC
MEAN_ELEMENT_THEORY = SGP/SGP4

EPOCH          = 2026-03-04T13:47:37.671648
MEAN_MOTION    = 15.80887796
ECCENTRICITY   = .00016974
INCLINATION    = 97.2838
RA_OF_ASC_NODE = 249.8893
ARG_OF_PERICENTER = 64.9859
MEAN_ANOMALY   = 295.1585

EPHEMERIS_TYPE = 0
CLASSIFICATION_TYPE = U
NORAD_CAT_ID   = 67816
ELEMENT_SET_NO = 999
REV_AT_EPOCH   = 398
BSTAR          = .11534049E-2
MEAN_MOTION_DOT = .22739E-2
MEAN_MOTION_DDOT = 0

CCSDS_OMM_VERS = 2.0
CREATION_DATE  = 
ORIGINATOR     = 

OBJECT_NAME    = STARLINK-36756
OBJECT_ID      = 2026-032W
CENTER_NAME    = EARTH
REF_FRAME      = TEME
TIME_SYSTEM    = UTC
MEAN_ELEMENT_THEORY = SGP/SGP4

EPOCH          = 2026-03-04T12:00:00.999648
MEAN_MOTION    = 15.75163086
ECCENTRICITY   = .00011549
INCLINATION    = 97.2844
RA_OF_ASC_NODE = 249.8101
ARG_OF_PERICENTER = 83.4505
MEAN_ANOMALY   = 207.9217

EPHEMERIS_TYPE = 0
CLASSIFICATION_TYPE = U
NORAD_CAT_ID   = 67817
ELEMENT_SET_NO = 999
REV_AT_EPOCH   = 394
BSTAR          = .147305E-3
MEAN_MOTION_DOT = .21872E-3
MEAN_MOTION_DDOT = 0

CCSDS_OMM_VERS = 2.0
CREATION_DATE  = 
ORIGINATOR     = 

OBJECT_NAME    = STARLINK-36346
OBJECT_ID      = 2026-032X
CENTER_NAME    = EARTH
REF_FRAME      = TEME
TIME_SYSTEM    = UTC
MEAN_ELEMENT_THEORY = SGP/SGP4

EPOCH          = 2026-03-04T13:39:45.760896
MEAN_MOTION    = 15.80893273
ECCENTRICITY   = .00013773
INCLINATION    = 97.2839
RA_OF_ASC_NODE = 249.8974
ARG_OF_PERICENTER = 74.8674
MEAN_ANOMALY   = 285.2746

EPHEMERIS_TYPE = 0
CLASSIFICATION_TYPE = U
NORAD_CAT_ID   = 67818
ELEMENT_SET_NO = 999
REV_AT_EPOCH   = 398
BSTAR          = .1226661E-2
MEAN_MOTION_DOT = .242318E-2
MEAN_MOTION_DDOT = 0

CCSDS_OMM_VERS = 2.0
CREATION_DATE  = 
ORIGINATOR     = 

OBJECT_NAME    = STARLINK-36788
OBJECT_ID      = 2026-032Y
CENTER_NAME    = EARTH
REF_FRAME      = TEME
TIME_SYSTEM    = UTC
MEAN_ELEMENT_THEORY = SGP/SGP4

EPOCH          = 2026-03-04T12:00:00.999648
MEAN_MOTION    = 15.75169534
ECCENTRICITY   = .00017962
INCLINATION    = 97.2840
RA_OF_ASC_NODE = 249.7839
ARG_OF_PERICENTER = 66.6364
MEAN_ANOMALY   = 162.7460

EPHEMERIS_TYPE = 0
CLASSIFICATION_TYPE = U
NORAD_CAT_ID   = 67819
ELEMENT_SET_NO = 999
REV_AT_EPOCH   = 388
BSTAR          = -.10135096E-4
MEAN_MOTION_DOT = -.164E-4
MEAN_MOTION_DDOT = 0

CCSDS_OMM_VERS = 2.0
CREATION_DATE  = 
ORIGINATOR     = 

OBJECT_NAME    = STARLINK-36353
OBJECT_ID      = 2026-032Z
CENTER_NAME    = EARTH
REF_FRAME      = TEME
TIME_SYSTEM    = UTC
MEAN_ELEMENT_THEORY = SGP/SGP4

EPOCH          = 2026-03-04T12:00:00.999648
MEAN_MOTION    = 15.75136361
ECCENTRICITY   = .00013356
INCLINATION    = 97.2840
RA_OF_ASC_NODE = 249.7930
ARG_OF_PERICENTER = 73.3958
MEAN_ANOMALY   = 177.9944

EPHEMERIS_TYPE = 0
CLASSIFICATION_TYPE = U
NORAD_CAT_ID   = 67820
ELEMENT_SET_NO = 999
REV_AT_EPOCH   = 394
BSTAR          = .37737435E-3
MEAN_MOTION_DOT = .56399E-3
MEAN_MOTION_DDOT = 0

CCSDS_OMM_VERS = 2.0
CREATION_DATE  = 
ORIGINATOR     = 

OBJECT_NAME    = STARLINK-36644
OBJECT_ID      = 2026-033A
CENTER_NAME    = EARTH
REF_FRAME      = TEME
TIME_SYSTEM    = UTC
MEAN_ELEMENT_THEORY = SGP/SGP4

EPOCH          = 2026-03-04T13:55:56.902944
MEAN_MOTION    = 15.82188180
ECCENTRICITY   = .00024166
INCLINATION    = 42.9972
RA_OF_ASC_NODE = 302.8373
ARG_OF_PERICENTER = 255.9859
MEAN_ANOMALY   = 104.0745

EPHEMERIS_TYPE = 0
CLASSIFICATION_TYPE = U
NORAD_CAT_ID   = 67821
ELEMENT_SET_NO = 999
REV_AT_EPOCH   = 381
BSTAR          = .2240601E-2
MEAN_MOTION_DOT = .503798E-2
MEAN_MOTION_DDOT = 0

CCSDS_OMM_VERS = 2.0
CREATION_DATE  = 
ORIGINATOR     = 

OBJECT_NAME    = STARLINK-36643
OBJECT_ID      = 2026-033B
CENTER_NAME    = EARTH
REF_FRAME      = TEME
TIME_SYSTEM    = UTC
MEAN_ELEMENT_THEORY = SGP/SGP4

EPOCH          = 2026-03-04T13:54:52.051968
MEAN_MOTION    = 15.82250180
ECCENTRICITY   = .00032535
INCLINATION    = 42.9973
RA_OF_ASC_NODE = 302.8312
ARG_OF_PERICENTER = 239.1382
MEAN_ANOMALY   = 120.9170

EPHEMERIS_TYPE = 0
CLASSIFICATION_TYPE = U
NORAD_CAT_ID   = 67822
ELEMENT_SET_NO = 999
REV_AT_EPOCH   = 381
BSTAR          = .24986636E-2
MEAN_MOTION_DOT = .567758E-2
MEAN_MOTION_DDOT = 0

CCSDS_OMM_VERS = 2.0
CREATION_DATE  = 
ORIGINATOR     = 

OBJECT_NAME    = STARLINK-36646
OBJECT_ID      = 2026-033C
CENTER_NAME    = EARTH
REF_FRAME      = TEME
TIME_SYSTEM    = UTC
MEAN_ELEMENT_THEORY = SGP/SGP4

EPOCH          = 2026-03-04T12:00:00.999648
MEAN_MOTION    = 15.81941718
ECCENTRICITY   = .00020898
INCLINATION    = 42.9982
RA_OF_ASC_NODE = 303.3086
ARG_OF_PERICENTER = 256.8398
MEAN_ANOMALY   = 12.7190

EPHEMERIS_TYPE = 0
CLASSIFICATION_TYPE = U
NORAD_CAT_ID   = 67823
ELEMENT_SET_NO = 999
REV_AT_EPOCH   = 383
BSTAR          = .17487606E-3
MEAN_MOTION_DOT = .36318E-3
MEAN_MOTION_DDOT = 0

CCSDS_OMM_VERS = 2.0
CREATION_DATE  = 
ORIGINATOR     = 

OBJECT_NAME    = STARLINK-36647
OBJECT_ID      = 2026-033D
CENTER_NAME    = EARTH
REF_FRAME      = TEME
TIME_SYSTEM    = UTC
MEAN_ELEMENT_THEORY = SGP/SGP4

EPOCH          = 2026-03-04T03:16:19.216992
MEAN_MOTION    = 15.82162580
ECCENTRICITY   = .00020094
INCLINATION    = 42.9972
RA_OF_ASC_NODE = 305.5273
ARG_OF_PERICENTER = 251.1858
MEAN_ANOMALY   = 108.8796

EPHEMERIS_TYPE = 0
CLASSIFICATION_TYPE = U
NORAD_CAT_ID   = 67824
ELEMENT_SET_NO = 999
REV_AT_EPOCH   = 374
BSTAR          = .17124411E-2
MEAN_MOTION_DOT = .378866E-2
MEAN_MOTION_DDOT = 0

